start=new Date('2023-04-03T00:00:00.000Z').valueOf();
sats=[{"TLE_LINE1":"1 47834U 21018AZ  23092.82965913  .00003712  00000-0  26801-3 0  9990","ECCENTRICITY":"0.00010360","TLE_LINE2":"2 47834  53.0556  23.3810 0001036 120.4205 239.6887 15.06393227115090","OBJECT_ID":"2021-018AZ","REV_AT_EPOCH":"11509","EPHEMERIS_TYPE":"0","DECAY_DATE":null,"OBJECT_TYPE":"PAYLOAD","ELEMENT_SET_NO":"999","BSTAR":"0.00026801000000","MEAN_ANOMALY":"239.6887","TIME_SYSTEM":"UTC","NORAD_CAT_ID":"47834","LAUNCH_DATE":"2021-03-11","SEMIMAJOR_AXIS":"6925.369","PERIOD":"95.593","RCS_SIZE":"LARGE","OBJECT_NAME":"STARLINK-2424","SITE":"AFETR","MEAN_MOTION_DOT":"0.00003712","MEAN_MOTION_DDOT":"0.0000000000000","MEAN_MOTION":"15.06393227","MEAN_ELEMENT_THEORY":"SGP4","REF_FRAME":"TEME","CENTER_NAME":"EARTH","INCLINATION":"53.0556","RA_OF_ASC_NODE":"23.3810","CLASSIFICATION_TYPE":"U","PERIAPSIS":"546.517","APOAPSIS":"547.952","EPOCH":"2023-04-02T19:54:42.548832","GP_ID":"229351614","COUNTRY_CODE":"US","ARG_OF_PERICENTER":"120.4205","FILE":"3878419"},{"MEAN_ANOMALY":"262.7928","TIME_SYSTEM":"UTC","NORAD_CAT_ID":"47835","LAUNCH_DATE":"2021-03-11","SEMIMAJOR_AXIS":"6925.377","PERIOD":"95.593","RCS_SIZE":"LARGE","OBJECT_NAME":"STARLINK-2425","TLE_LINE1":"1 47835U 21018BA  23092.85684709  .00003918  00000-0  28188-3 0  9993","ECCENTRICITY":"0.00018710","TLE_LINE2":"2 47835  53.0542  28.3842 0001871  97.3274 262.7928 15.06390567114963","OBJECT_ID":"2021-018BA","REV_AT_EPOCH":"11496","EPHEMERIS_TYPE":"0","DECAY_DATE":null,"OBJECT_TYPE":"PAYLOAD","ELEMENT_SET_NO":"999","BSTAR":"0.00028188000000","RA_OF_ASC_NODE":"28.3842","CLASSIFICATION_TYPE":"U","PERIAPSIS":"545.947","EPOCH":"2023-04-02T20:33:51.588576","APOAPSIS":"548.538","GP_ID":"229349884","COUNTRY_CODE":"US","ARG_OF_PERICENTER":"97.3274","FILE":"3878419","SITE":"AFETR","MEAN_MOTION_DDOT":"0.0000000000000","MEAN_MOTION_DOT":"0.00003918","MEAN_MOTION":"15.06390567","MEAN_ELEMENT_THEORY":"SGP4","REF_FRAME":"TEME","CENTER_NAME":"EARTH","INCLINATION":"53.0542"},{"DECAY_DATE":null,"OBJECT_TYPE":"PAYLOAD","ELEMENT_SET_NO":"999","BSTAR":"0.00266190000000","TLE_LINE1":"1 47836U 21018BB  23092.25099062  .00039639  00000-0  26619-2 0  9995","ECCENTRICITY":"0.00013510","TLE_LINE2":"2 47836  53.0544  26.0675 0001351 117.1423 242.9704 15.06444689114951","OBJECT_ID":"2021-018BB","EPHEMERIS_TYPE":"0","REV_AT_EPOCH":"11495","PERIOD":"95.589","SEMIMAJOR_AXIS":"6925.212","OBJECT_NAME":"STARLINK-2426","RCS_SIZE":"LARGE","MEAN_ANOMALY":"242.9704","TIME_SYSTEM":"UTC","NORAD_CAT_ID":"47836","LAUNCH_DATE":"2021-03-11","REF_FRAME":"TEME","CENTER_NAME":"EARTH","INCLINATION":"53.0544","SITE":"AFETR","MEAN_MOTION_DDOT":"0.0000000000000","MEAN_MOTION_DOT":"0.00039639","MEAN_MOTION":"15.06444689","MEAN_ELEMENT_THEORY":"SGP4","GP_ID":"229316648","COUNTRY_CODE":"US","ARG_OF_PERICENTER":"117.1423","FILE":"3878126","RA_OF_ASC_NODE":"26.0675","CLASSIFICATION_TYPE":"U","PERIAPSIS":"546.141","APOAPSIS":"548.012","EPOCH":"2023-04-02T06:01:25.589568"},{"TLE_LINE1":"1 47837U 21018BC  23092.92367428  .00008733  00000-0  60490-3 0  9991","TLE_LINE2":"2 47837  53.0566   2.9624 0000581 112.3357 247.7693 15.06368935115343","ECCENTRICITY":"0.00005810","OBJECT_ID":"2021-018BC","REV_AT_EPOCH":"11534","EPHEMERIS_TYPE":"0","OBJECT_TYPE":"PAYLOAD","DECAY_DATE":null,"ELEMENT_SET_NO":"999","BSTAR":"0.00060490000000","MEAN_ANOMALY":"247.7693","NORAD_CAT_ID":"47837","TIME_SYSTEM":"UTC","LAUNCH_DATE":"2021-03-11","SEMIMAJOR_AXIS":"6925.444","PERIOD":"95.594","RCS_SIZE":"LARGE","OBJECT_NAME":"STARLINK-2427","SITE":"AFETR","MEAN_MOTION":"15.06368935","MEAN_MOTION_DDOT":"0.0000000000000","MEAN_MOTION_DOT":"0.00008733","MEAN_ELEMENT_THEORY":"SGP4","REF_FRAME":"TEME","CENTER_NAME":"EARTH","INCLINATION":"53.0566","CLASSIFICATION_TYPE":"U","RA_OF_ASC_NODE":"2.9624","PERIAPSIS":"546.906","EPOCH":"2023-04-02T22:10:05.457792","APOAPSIS":"547.711","GP_ID":"229351386","COUNTRY_CODE":"US","ARG_OF_PERICENTER":"112.3357","FILE":"3878419"},{"RCS_SIZE":"MEDIUM","OBJECT_NAME":"STARLINK-2429","SEMIMAJOR_AXIS":"6925.339","PERIOD":"95.592","LAUNCH_DATE":"2021-03-11","MEAN_ANOMALY":"276.2409","TIME_SYSTEM":"UTC","NORAD_CAT_ID":"47838","ELEMENT_SET_NO":"999","BSTAR":"0.00256830000000","OBJECT_TYPE":"PAYLOAD","DECAY_DATE":null,"OBJECT_ID":"2021-018BD","REV_AT_EPOCH":"11503","EPHEMERIS_TYPE":"0","TLE_LINE1":"1 47838U 21018BD  23092.80389387  .00038185  00000-0  25683-2 0  9995","ECCENTRICITY":"0.00016460","TLE_LINE2":"2 47838  53.0549  23.4995 0001646  83.8768 276.2409 15.06403188115033","ARG_OF_PERICENTER":"83.8768","FILE":"3878419","GP_ID":"229351114","COUNTRY_CODE":"US","PERIAPSIS":"546.064","EPOCH":"2023-04-02T19:17:36.430368","APOAPSIS":"548.344","RA_OF_ASC_NODE":"23.4995","CLASSIFICATION_TYPE":"U","INCLINATION":"53.0549","REF_FRAME":"TEME","CENTER_NAME":"EARTH","MEAN_MOTION_DDOT":"0.0000000000000","MEAN_MOTION_DOT":"0.00038185","MEAN_MOTION":"15.06403188","MEAN_ELEMENT_THEORY":"SGP4","SITE":"AFETR"},{"PERIAPSIS":"546.280","EPOCH":"2023-04-02T21:34:18.588864","APOAPSIS":"548.113","CLASSIFICATION_TYPE":"U","RA_OF_ASC_NODE":"353.0796","ARG_OF_PERICENTER":"111.3816","FILE":"3878419","GP_ID":"229350385","COUNTRY_CODE":"US","MEAN_MOTION":"15.06405575","MEAN_MOTION_DDOT":"0.0000000000000","MEAN_MOTION_DOT":"0.00024674","MEAN_ELEMENT_THEORY":"SGP4","SITE":"AFETR","INCLINATION":"53.0550","REF_FRAME":"TEME","CENTER_NAME":"EARTH","LAUNCH_DATE":"2021-03-11","MEAN_ANOMALY":"248.7314","NORAD_CAT_ID":"47839","TIME_SYSTEM":"UTC","RCS_SIZE":"LARGE","OBJECT_NAME":"STARLINK-2431","SEMIMAJOR_AXIS":"6925.331","PERIOD":"95.592","OBJECT_ID":"2021-018BE","REV_AT_EPOCH":"11548","EPHEMERIS_TYPE":"0","TLE_LINE1":"1 47839U 21018BE  23092.89882626  .00024674  00000-0  16693-2 0  9998","TLE_LINE2":"2 47839  53.0550 353.0796 0001324 111.3816 248.7314 15.06405575115481","ECCENTRICITY":"0.00013240","ELEMENT_SET_NO":"999","BSTAR":"0.00166930000000","OBJECT_TYPE":"PAYLOAD","DECAY_DATE":null},{"MEAN_ELEMENT_THEORY":"SGP4","MEAN_MOTION_DOT":"-0.00011411","MEAN_MOTION_DDOT":"0.0000000000000","MEAN_MOTION":"15.06358477","SITE":"AFETR","INCLINATION":"53.0556","CENTER_NAME":"EARTH","REF_FRAME":"TEME","APOAPSIS":"547.797","EPOCH":"2023-04-02T21:48:50.931648","PERIAPSIS":"546.884","RA_OF_ASC_NODE":"3.0270","CLASSIFICATION_TYPE":"U","FILE":"3878419","ARG_OF_PERICENTER":"100.8486","COUNTRY_CODE":"US","GP_ID":"229350635","REV_AT_EPOCH":"11533","EPHEMERIS_TYPE":"0","OBJECT_ID":"2021-018BF","ECCENTRICITY":"0.00006590","TLE_LINE2":"2 47840  53.0556   3.0270 0000659 100.8486 259.2577 15.06358477115334","TLE_LINE1":"1 47840U 21018BF  23092.90892282 -.00011411  00000-0 -74929-3 0  9995","BSTAR":"-0.00074929000000","ELEMENT_SET_NO":"999","DECAY_DATE":null,"OBJECT_TYPE":"PAYLOAD","LAUNCH_DATE":"2021-03-11","TIME_SYSTEM":"UTC","NORAD_CAT_ID":"47840","MEAN_ANOMALY":"259.2577","OBJECT_NAME":"STARLINK-2432","RCS_SIZE":"LARGE","SEMIMAJOR_AXIS":"6925.476","PERIOD":"95.595"},{"OBJECT_ID":"2021-018BG","REV_AT_EPOCH":"11533","EPHEMERIS_TYPE":"0","TLE_LINE1":"1 47841U 21018BG  23092.90524052  .00028045  00000-0  18928-2 0  9998","ECCENTRICITY":"0.00011590","TLE_LINE2":"2 47841  53.0558   3.0435 0001159  84.3323 275.7798 15.06426883115337","ELEMENT_SET_NO":"999","BSTAR":"0.00189280000000","DECAY_DATE":null,"OBJECT_TYPE":"PAYLOAD","LAUNCH_DATE":"2021-03-11","MEAN_ANOMALY":"275.7798","TIME_SYSTEM":"UTC","NORAD_CAT_ID":"47841","OBJECT_NAME":"STARLINK-2433","RCS_SIZE":"LARGE","PERIOD":"95.590","SEMIMAJOR_AXIS":"6925.266","MEAN_MOTION_DDOT":"0.0000000000000","MEAN_MOTION_DOT":"0.00028045","MEAN_MOTION":"15.06426883","MEAN_ELEMENT_THEORY":"SGP4","SITE":"AFETR","INCLINATION":"53.0558","REF_FRAME":"TEME","CENTER_NAME":"EARTH","PERIAPSIS":"546.329","APOAPSIS":"547.934","EPOCH":"2023-04-02T21:43:32.780928","RA_OF_ASC_NODE":"3.0435","CLASSIFICATION_TYPE":"U","ARG_OF_PERICENTER":"84.3323","FILE":"3878419","GP_ID":"229350886","COUNTRY_CODE":"US"},{"INCLINATION":"53.0539","REF_FRAME":"TEME","CENTER_NAME":"EARTH","MEAN_MOTION_DDOT":"0.0000000000000","MEAN_MOTION_DOT":"0.00037989","MEAN_MOTION":"15.06432325","MEAN_ELEMENT_THEORY":"SGP4","SITE":"AFETR","ARG_OF_PERICENTER":"110.3185","FILE":"3878419","GP_ID":"229351615","COUNTRY_CODE":"US","PERIAPSIS":"546.095","APOAPSIS":"548.134","EPOCH":"2023-04-02T19:48:08.911296","RA_OF_ASC_NODE":"33.4021","CLASSIFICATION_TYPE":"U","ELEMENT_SET_NO":"999","BSTAR":"0.00255330000000","DECAY_DATE":null,"OBJECT_TYPE":"PAYLOAD","OBJECT_ID":"2021-018BH","REV_AT_EPOCH":"11495","EPHEMERIS_TYPE":"0","TLE_LINE1":"1 47842U 21018BH  23092.82510314  .00037989  00000-0  25533-2 0  9993","ECCENTRICITY":"0.00014720","TLE_LINE2":"2 47842  53.0539  33.4021 0001472 110.3185 249.7962 15.06432325114958","RCS_SIZE":"LARGE","OBJECT_NAME":"STARLINK-2434","SEMIMAJOR_AXIS":"6925.249","PERIOD":"95.590","LAUNCH_DATE":"2021-03-11","MEAN_ANOMALY":"249.7962","TIME_SYSTEM":"UTC","NORAD_CAT_ID":"47842"},{"SITE":"AFETR","MEAN_MOTION_DOT":"0.00058086","MEAN_MOTION_DDOT":"0.0000000000000","MEAN_MOTION":"15.06477242","MEAN_ELEMENT_THEORY":"SGP4","REF_FRAME":"TEME","CENTER_NAME":"EARTH","INCLINATION":"53.0539","RA_OF_ASC_NODE":"30.9081","CLASSIFICATION_TYPE":"U","PERIAPSIS":"546.023","APOAPSIS":"547.931","EPOCH":"2023-04-02T06:24:40.338720","GP_ID":"229316399","COUNTRY_CODE":"US","ARG_OF_PERICENTER":"115.8833","FILE":"3878126","TLE_LINE1":"1 47843U 21018BJ  23092.26713355  .00058086  00000-0  38784-2 0  9995","ECCENTRICITY":"0.00013780","TLE_LINE2":"2 47843  53.0539  30.9081 0001378 115.8833 244.2298 15.06477242114906","OBJECT_ID":"2021-018BJ","REV_AT_EPOCH":"11490","EPHEMERIS_TYPE":"0","OBJECT_TYPE":"PAYLOAD","DECAY_DATE":null,"ELEMENT_SET_NO":"999","BSTAR":"0.00387840000000","MEAN_ANOMALY":"244.2298","TIME_SYSTEM":"UTC","NORAD_CAT_ID":"47843","LAUNCH_DATE":"2021-03-11","SEMIMAJOR_AXIS":"6925.112","PERIOD":"95.587","OBJECT_NAME":"STARLINK-2435","RCS_SIZE":"LARGE"}];
